{
  "norad_id": 63467,
  "name": "STARLINK-33697",
  "history": [
    {
      "epoch": "2026-04-11T15:06:22.067712Z",
      "apogee_km": 483.1510670254902,
      "perigee_km": 482.9164149861481,
      "latitude_deg": -4.137938192852507e-06,
      "longitude_deg": 7.3930818449999895,
      "height_km": 482.8027290673339,
      "semi_major_axis_km": 6861.170741005819,
      "eccentricity": 1.71e-05,
      "inclination_deg": 43.0017,
      "raan_deg": 73.8312,
      "arg_perigee_deg": 273.3141,
      "mean_anomaly_deg": 86.7691,
      "mean_motion_rev_day": 15.27585128
    },
    {
      "epoch": "2026-04-13T06:20:16.919808Z",
      "apogee_km": 483.65578487268704,
      "perigee_km": 482.41075691533115,
      "latitude_deg": -3.37253740166693e-05,
      "longitude_deg": 128.07250194373736,
      "height_km": 482.95317622086196,
      "semi_major_axis_km": 6861.170270894009,
      "eccentricity": 9.073e-05,
      "inclination_deg": 43.0024,
      "raan_deg": 64.6004,
      "arg_perigee_deg": 256.682,
      "mean_anomaly_deg": 103.393,
      "mean_motion_rev_day": 15.27585285
    },
    {
      "epoch": "2026-04-14T13:43:24.536064Z",
      "apogee_km": 483.61832437725843,
      "perigee_km": 482.4505529983953,
      "latitude_deg": 4.8074103235768974e-05,
      "longitude_deg": 8.616201485586595,
      "height_km": 482.90248302758073,
      "semi_major_axis_km": 6861.171438687827,
      "eccentricity": 8.51e-05,
      "inclination_deg": 42.999,
      "raan_deg": 57.2147,
      "arg_perigee_deg": 260.9386,
      "mean_anomaly_deg": 99.137,
      "mean_motion_rev_day": 15.27584895
    },
    {
      "epoch": "2026-04-15T21:06:32.428800Z",
      "apogee_km": 483.8547742748615,
      "perigee_km": 482.2259307713721,
      "latitude_deg": 3.48265788805966e-06,
      "longitude_deg": -110.84128780551292,
      "height_km": 482.96712013065445,
      "semi_major_axis_km": 6861.1773525231165,
      "eccentricity": 0.0001187,
      "inclination_deg": 43.0006,
      "raan_deg": 49.8291,
      "arg_perigee_deg": 259.3711,
      "mean_anomaly_deg": 100.7007,
      "mean_motion_rev_day": 15.2758292
    },
    {
      "epoch": "2026-04-16T12:48:06.457248Z",
      "apogee_km": 483.17105764594726,
      "perigee_km": 482.89523860599274,
      "latitude_deg": -2.651576242914888e-05,
      "longitude_deg": 9.430116447112836,
      "height_km": 482.74296493901915,
      "semi_major_axis_km": 6861.17014812597,
      "eccentricity": 2.01e-05,
      "inclination_deg": 43.0018,
      "raan_deg": 46.1368,
      "arg_perigee_deg": 298.5838,
      "mean_anomaly_deg": 61.4993,
      "mean_motion_rev_day": 15.27585326
    },
    {
      "epoch": "2026-04-17T20:11:14.108928Z",
      "apogee_km": 483.26031365243216,
      "perigee_km": 482.78922628530563,
      "latitude_deg": -2.9006377238952586e-05,
      "longitude_deg": -110.0266213483822,
      "height_km": 482.6733172640115,
      "semi_major_axis_km": 6861.161769968869,
      "eccentricity": 3.433e-05,
      "inclination_deg": 42.9987,
      "raan_deg": 38.7509,
      "arg_perigee_deg": 302.6352,
      "mean_anomaly_deg": 57.4466,
      "mean_motion_rev_day": 15.27588124
    },
    {
      "epoch": "2026-04-18T11:52:47.688096Z",
      "apogee_km": 483.73504418425364,
      "perigee_km": 482.26840717025334,
      "latitude_deg": 5.9851067696752494e-05,
      "longitude_deg": 10.24618571334267,
      "height_km": 482.7865852064721,
      "semi_major_axis_km": 6861.138725677253,
      "eccentricity": 0.00010688,
      "inclination_deg": 42.9995,
      "raan_deg": 35.058,
      "arg_perigee_deg": 269.3355,
      "mean_anomaly_deg": 90.7375,
      "mean_motion_rev_day": 15.2759582
    },
    {
      "epoch": "2026-04-19T11:25:07.984704Z",
      "apogee_km": 483.3812383974346,
      "perigee_km": 482.5841135134815,
      "latitude_deg": 3.3967317161265535e-05,
      "longitude_deg": 10.655077103605473,
      "height_km": 482.5183098658045,
      "semi_major_axis_km": 6861.119675955458,
      "eccentricity": 5.809e-05,
      "inclination_deg": 43.0021,
      "raan_deg": 29.5182,
      "arg_perigee_deg": 307.114,
      "mean_anomaly_deg": 52.9659,
      "mean_motion_rev_day": 15.27602182
    },
    {
      "epoch": "2026-04-20T10:57:29.850336Z",
      "apogee_km": 483.74610056804977,
      "perigee_km": 482.43437114509834,
      "latitude_deg": -2.7226840930950884e-05,
      "longitude_deg": 11.060574279797953,
      "height_km": 482.64647198017394,
      "semi_major_axis_km": 6861.227235856574,
      "eccentricity": 9.559e-05,
      "inclination_deg": 43.0017,
      "raan_deg": 23.9816,
      "arg_perigee_deg": 289.6231,
      "mean_anomaly_deg": 70.4517,
      "mean_motion_rev_day": 15.27566261
    },
    {
      "epoch": "2026-04-21T10:29:50.597088Z",
      "apogee_km": 483.56945813200673,
      "perigee_km": 482.40594860480996,
      "latitude_deg": -1.71082489868261e-05,
      "longitude_deg": 11.465721590381941,
      "height_km": 482.4559684394934,
      "semi_major_axis_km": 6861.124703368408,
      "eccentricity": 8.479e-05,
      "inclination_deg": 43.0054,
      "raan_deg": 18.4399,
      "arg_perigee_deg": 302.0236,
      "mean_anomaly_deg": 58.0533,
      "mean_motion_rev_day": 15.27600503
    },
    {
      "epoch": "2026-04-22T02:11:23.720928Z",
      "apogee_km": 483.68462677589287,
      "perigee_km": 482.26135811905897,
      "latitude_deg": 5.096994518229839e-05,
      "longitude_deg": 131.74270700433553,
      "height_km": 482.68393254240726,
      "semi_major_axis_km": 6861.109992447476,
      "eccentricity": 0.00010372,
      "inclination_deg": 43.0009,
      "raan_deg": 14.7493,
      "arg_perigee_deg": 275.2851,
      "mean_anomaly_deg": 84.7883,
      "mean_motion_rev_day": 15.27605416
    },
    {
      "epoch": "2026-04-23T01:43:44.887584Z",
      "apogee_km": 483.9069426876549,
      "perigee_km": 482.14431000894547,
      "latitude_deg": -8.961325519912508e-06,
      "longitude_deg": 132.14932523203203,
      "height_km": 482.9974561278396,
      "semi_major_axis_km": 6861.162626348299,
      "eccentricity": 0.00012845,
      "inclination_deg": 43.0024,
      "raan_deg": 9.2109,
      "arg_perigee_deg": 257.2162,
      "mean_anomaly_deg": 102.8546,
      "mean_motion_rev_day": 15.27587838
    },
    {
      "epoch": "2026-04-24T09:06:52.924608Z",
      "apogee_km": 483.4308620388165,
      "perigee_km": 482.6253612547089,
      "latitude_deg": -1.0134908314368498e-05,
      "longitude_deg": 12.689075003557138,
      "height_km": 482.5138169557627,
      "semi_major_axis_km": 6861.165111646762,
      "eccentricity": 5.87e-05,
      "inclination_deg": 43.0074,
      "raan_deg": 1.8231,
      "arg_perigee_deg": 316.2581,
      "mean_anomaly_deg": 43.8224,
      "mean_motion_rev_day": 15.27587008
    },
    {
      "epoch": "2026-04-25T08:39:14.251968Z",
      "apogee_km": 484.0851603384208,
      "perigee_km": 481.95408509140543,
      "latitude_deg": 4.154517397501589e-05,
      "longitude_deg": 13.094242574349275,
      "height_km": 481.9210398445878,
      "semi_major_axis_km": 6861.156622714912,
      "eccentricity": 0.0001553,
      "inclination_deg": 43.0009,
      "raan_deg": 356.2838,
      "arg_perigee_deg": 34.9617,
      "mean_anomaly_deg": 325.1337,
      "mean_motion_rev_day": 15.27589843
    },
    {
      "epoch": "2026-04-26T16:02:21.837120Z",
      "apogee_km": 483.7548132608408,
      "perigee_km": 482.4080933028308,
      "latitude_deg": -2.4098758158839124e-05,
      "longitude_deg": -106.3595861337875,
      "height_km": 482.3663999416128,
      "semi_major_axis_km": 6861.2184532818355,
      "eccentricity": 9.814e-05,
      "inclination_deg": 42.994,
      "raan_deg": 348.9006,
      "arg_perigee_deg": 316.7581,
      "mean_anomaly_deg": 43.3193,
      "mean_motion_rev_day": 15.27569194
    },
    {
      "epoch": "2026-04-27T07:43:55.970112Z",
      "apogee_km": 483.95197442992685,
      "perigee_km": 482.0939723091378,
      "latitude_deg": -2.618922457448988e-05,
      "longitude_deg": 13.908610295582662,
      "height_km": 482.7008031444073,
      "semi_major_axis_km": 6861.159973369532,
      "eccentricity": 0.0001354,
      "inclination_deg": 43.0044,
      "raan_deg": 345.2055,
      "arg_perigee_deg": 276.1381,
      "mean_anomaly_deg": 83.9316,
      "mean_motion_rev_day": 15.27588724
    },
    {
      "epoch": "2026-04-28T21:23:40.841088Z",
      "apogee_km": 484.534540507595,
      "perigee_km": 481.54443979318785,
      "latitude_deg": -4.3558868943690404e-05,
      "longitude_deg": 158.56438811523515,
      "height_km": 482.59493403199764,
      "semi_major_axis_km": 6861.176490150391,
      "eccentricity": 0.0002179,
      "inclination_deg": 43.0005,
      "raan_deg": 336.345,
      "arg_perigee_deg": 278.5369,
      "mean_anomaly_deg": 81.5235,
      "mean_motion_rev_day": 15.27583208
    },
    {
      "epoch": "2026-04-29T20:56:01.281984Z",
      "apogee_km": 484.7607118080132,
      "perigee_km": 481.2093950331637,
      "latitude_deg": -1.978496451946858e-05,
      "longitude_deg": 158.9728305214197,
      "height_km": 482.42831446965897,
      "semi_major_axis_km": 6861.122053420589,
      "eccentricity": 0.0002588,
      "inclination_deg": 43.0002,
      "raan_deg": 330.8053,
      "arg_perigee_deg": 280.8539,
      "mean_anomaly_deg": 79.2021,
      "mean_motion_rev_day": 15.27601388
    },
    {
      "epoch": "2026-04-29T22:30:10.260000Z",
      "apogee_km": 484.10614333415924,
      "perigee_km": 481.46743204541417,
      "latitude_deg": -1.774652398238897e-05,
      "longitude_deg": 135.00118117712475,
      "height_km": 482.56106720141645,
      "semi_major_axis_km": 6860.923787689787,
      "eccentricity": 0.0001923,
      "inclination_deg": 42.9994,
      "raan_deg": 330.4355,
      "arg_perigee_deg": 270.12,
      "mean_anomaly_deg": 89.9431,
      "mean_motion_rev_day": 15.27667605
    }
  ]
}